id,name,email,street,city,state,postal,website,phone
1,Voonder,agoodlad0@about.me,03292 Judy Trail,Cagliari,Sardegna,09124,https://upenn.edu,+39 (474) 668-0621
2,Voomm,drenbold1@plala.or.jp,4 Straubel Alley,Camajuaní,,,https://unblog.fr,+53 (888) 309-9488
3,Muxo,jbossingham2@ftc.gov,0562 Badeau Hill,Hanjia,,,http://ca.gov,+86 (658) 820-7449
4,Skyndu,rkaye3@admin.ch,579 Duke Junction,Labruge,Porto,4485-296,http://webs.com,+351 (557) 359-5718
5,Skinix,glumbly4@goo.gl,43 Judy Alley,Belz,,,http://ucoz.com,+380 (886) 136-3544
6,Fivespan,bbence5@who.int,11 Parkside Circle,Lubenec,,439 83,http://theatlantic.com,+420 (119) 907-1545
7,Edgeblab,kyaneev6@sohu.com,0 Sage Street,Shimonoseki,,801-0885,http://hatena.ne.jp,+81 (197) 295-0674
8,Kaymbo,ablyden7@va.gov,82 Northfield Drive,Siruma,,4427,http://shop-pro.jp,+63 (475) 527-4031
9,Topicstorm,ahoulden8@soundcloud.com,47469 Stoughton Parkway,Mabini,,6313,https://sciencedaily.com,+63 (883) 161-1659
10,Chatterbridge,tpenvarden9@yellowbook.com,7 Dwight Junction,Cipari,,,https://sciencedirect.com,+62 (153) 371-0059
11,Devify,nstouthera@github.com,0 Gale Parkway,Montpellier,Languedoc-Roussillon,34294 CEDEX 5,http://youtube.com,+33 (226) 849-7837
12,Eire,alonghornb@dell.com,6 Golf Terrace,Linköping,Östergötland,582 46,http://mysql.com,+46 (373) 387-9332
13,Midel,sbeastonc@ustream.tv,22 Lighthouse Bay Way,Novoshakhtinsk,,346930,http://foxnews.com,+7 (651) 491-0834
14,Rhynoodle,aiveryd@elpais.com,06 Lighthouse Bay Center,Kampokpok,,6536,https://opera.com,+63 (606) 880-2431
15,Skinder,aakenheade@eepurl.com,573 Hanson Pass,Eixo,Aveiro,3800-766,https://who.int,+351 (659) 343-4356
16,Fliptune,cclacf@hexun.com,01412 Logan Avenue,Ţahţā,,,http://ezinearticles.com,+20 (199) 642-8016
17,Jazzy,sbonnickg@eventbrite.com,5183 Westport Hill,Kudinovo,,249064,http://meetup.com,+7 (685) 809-9106
18,Quinu,bdheninh@npr.org,69 Melrose Circle,Nuuk,,3900,https://amazonaws.com,+299 (926) 203-7728
19,Jamia,apohli@spotify.com,137 Leroy Hill,Oughterard,,P72,http://cpanel.net,+353 (920) 253-4605
20,Katz,ldawdryj@cbc.ca,92209 Meadow Ridge Junction,Dumingag,,7028,https://webs.com,+63 (918) 645-5193
21,Ooba,mrawlingk@taobao.com,0 Delaware Pass,Stockholm,Stockholm,114 29,https://hhs.gov,+46 (652) 317-2536
22,Bubblebox,mwastiel@buzzfeed.com,6201 Rigney Street,Sukasari,,,http://ucoz.ru,+62 (626) 884-2442
23,Tekfly,bspellarm@seattletimes.com,48660 Merry Place,Kyperoúnta,,,https://amazon.de,+357 (793) 785-5047
24,Riffpath,bmaclleesen@pen.io,045 Mayfield Street,Šuto Orizare,,1040,http://stumbleupon.com,+389 (570) 512-8636
25,Trunyx,lrubenovo@berkeley.edu,956 Brown Terrace,Rzepiennik Strzyżewski,,33-163,https://nature.com,+48 (678) 894-5706
26,Snaptags,ahakonssonp@wired.com,41 Artisan Way,Padre Bernardo,,73700-000,https://chronoengine.com,+55 (285) 320-8874
27,Bluezoom,btallmanq@nih.gov,52 Delladonna Terrace,Jiaoxiyakou,,,https://tripadvisor.com,+86 (826) 825-5146
28,Ozu,tknotonr@buzzfeed.com,78 Eagan Trail,Smyga,,,https://prlog.org,+380 (883) 262-5163
29,Tagopia,mpolkinghornes@hao123.com,40 Dapin Hill,Metsemotlhaba,,,https://php.net,+267 (133) 802-9035
30,DabZ,mnegust@rambler.ru,1 Mosinee Drive,Varberg,Halland,432 30,https://woothemes.com,+46 (285) 447-4887
31,Yozio,sclowneyu@google.pl,775 Corben Park,Fushë-Bulqizë,,,http://fastcompany.com,+355 (342) 500-4954
32,Snaptags,ntarbornv@ask.com,09569 Roth Parkway,Quebrada Canoa,,,http://army.mil,+507 (504) 810-8899
33,Zoomlounge,aleechmanw@typepad.com,5 Lakeland Circle,Senovo,,8281,http://yale.edu,+386 (968) 178-7869
34,Oyoloo,bgianellix@unblog.fr,5396 Bartillon Point,Nangang,,,https://hc360.com,+86 (323) 254-3453
35,Babbleopia,vleyfieldy@google.pl,66148 Nevada Center,Munturkaju,,,https://pagesperso-orange.fr,+62 (483) 959-7896
36,Abatz,egarfitz@cmu.edu,9283 Lakewood Gardens Park,Japeri,,26400-000,https://slideshare.net,+55 (272) 546-1238
37,Skipfire,bdouch10@hp.com,8481 Holmberg Crossing,Kambove,,,https://howstuffworks.com,+242 (662) 485-7627
38,Izio,crawdales11@phoca.cz,9 Algoma Trail,Swindon,England,SN1,http://behance.net,+44 (913) 647-8496
39,Oloo,ksturley12@samsung.com,6 Melby Street,Chýnov,,391 55,http://ihg.com,+420 (863) 727-6412
40,Dynabox,dnavarro13@photobucket.com,3732 Lakeland Place,Changlin,,,https://nationalgeographic.com,+86 (995) 402-6458
41,Dynabox,lcastille14@histats.com,24 Hauk Pass,Emiliano Zapata,Oaxaca,71836,http://issuu.com,+52 (678) 879-7874
42,Twinte,rdoerffer15@blogs.com,09169 Superior Terrace,Lidingö,Stockholm,181 77,https://studiopress.com,+46 (323) 620-3410
43,Tagpad,kanderl16@intel.com,2520 Kim Pass,Būr Safājah,,,http://bravesites.com,+20 (129) 708-3197
44,Yombu,dmatyatin17@omniture.com,451 Moulton Avenue,Napanee Downtown,Ontario,M5E,https://omniture.com,+1 (734) 866-8853
45,Realcube,kgirardot18@studiopress.com,96 Delaware Hill,Shiogama,,987-0058,https://fda.gov,+81 (667) 117-2851
46,Plajo,jsawday19@lulu.com,7734 Johnson Center,Rangxi,,,http://gravatar.com,+86 (575) 391-0541
47,Rhyloo,rclimie1a@weebly.com,9169 Bultman Hill,Stráž,,430 01,https://360.cn,+420 (832) 689-6199
48,Mynte,lbambridge1b@digg.com,738 American Court,Wysoka,,89-320,https://mapy.cz,+48 (965) 561-5947
49,Rhybox,mgawn1c@list-manage.com,9418 East Avenue,Dubréka,,,https://free.fr,+224 (126) 965-1640
50,Shuffledrive,sblampied1d@wisc.edu,577 Summer Ridge Park,Dasht-e Archī,,,http://nasa.gov,+93 (200) 503-2598
51,Shufflebeat,dlatour1e@stumbleupon.com,1507 Village Green Hill,Västerås,Västmanland,722 33,http://qq.com,+46 (265) 404-9302
52,Vinder,rwidmoor1f@techcrunch.com,27 Rockefeller Court,Derbent,,368608,http://wufoo.com,+7 (142) 803-3853
53,Zoombox,dfallis1g@ed.gov,61839 Forest Dale Court,Shanghu,,,http://xing.com,+86 (428) 966-6643
54,Yakidoo,tseverwright1h@shinystat.com,93683 Shasta Road,Haebaru,,904-2311,http://disqus.com,+81 (246) 115-0447
55,Yombu,nlockey1i@kickstarter.com,653 Gerald Plaza,Salima,,,https://nba.com,+265 (741) 265-3707
56,Camido,kive1j@pagesperso-orange.fr,5957 Nevada Parkway,Baishi,,,https://disqus.com,+86 (175) 447-5471
57,Oyoloo,regginton1k@state.gov,3705 Golden Leaf Center,Khotsimsk,,,https://slate.com,+375 (980) 242-4646
58,Mybuzz,vdunkinson1l@phpbb.com,04858 Sheridan Lane,Curahklapa,,,https://huffingtonpost.com,+62 (956) 496-2635
59,Voonyx,vpyne1m@last.fm,15279 Eagle Crest Pass,Sundbyberg,Stockholm,172 39,https://phoca.cz,+46 (530) 518-5174
60,Skyvu,tpope1n@hud.gov,377 Gina Hill,Moca,,11902,http://mashable.com,+1 (586) 768-8805
61,Vidoo,dargont1o@cdbaby.com,60 Lakewood Gardens Pass,Sambongmulyo,,,https://bing.com,+62 (113) 845-2345
62,Bubblemix,ytroy1p@marriott.com,207 Columbus Court,Bukui,,,https://youtu.be,+86 (989) 597-9648
63,JumpXS,jensor1q@163.com,34787 Hayes Center,Raszowa,,47-232,http://sakura.ne.jp,+48 (444) 405-2779
64,Demizz,ahackney1r@godaddy.com,340 Doe Crossing Alley,Eg,,,http://kickstarter.com,+976 (697) 900-2953
65,Tagchat,dsherman1s@shinystat.com,4 Prairie Rose Court,Cibingbin,,,https://wikipedia.org,+62 (893) 441-1976
66,Demizz,cchaffyn1t@google.com,94401 Northport Avenue,Xiangcheng,,,https://dion.ne.jp,+86 (190) 415-1872
67,LiveZ,tpeddar1u@51.la,1447 Vahlen Terrace,Áyios Yeóryios,,,http://dropbox.com,+30 (560) 425-9756
68,Dablist,tbeden1v@nyu.edu,71 Ruskin Parkway,Yessentukskaya,,357637,https://wufoo.com,+7 (727) 971-4965
69,Lazz,dpilch1w@answers.com,72 Lakewood Gardens Hill,Martin,,31500,https://godaddy.com,+385 (360) 668-2991
70,Livefish,iarboine1x@nydailynews.com,29 Main Alley,Taipa,,0420,http://examiner.com,+64 (897) 549-8224
71,DabZ,bweatherell1y@sun.com,41 Elgar Pass,San Luis,,8511,https://sakura.ne.jp,+63 (940) 523-6892
72,Eayo,pmayhow1z@exblog.jp,44293 Derek Circle,Baizhang,,,http://hubpages.com,+86 (838) 522-4777
73,Buzzshare,mfairlem20@pcworld.com,0887 Mccormick Place,El Crucero,,,http://lulu.com,+505 (512) 407-4008
74,Dabshots,jcheltnam21@macromedia.com,426 Magdeline Center,Bandar Seri Begawan,,,http://vk.com,+673 (265) 335-7937
75,Voolith,kodyvoie22@aboutads.info,842 Havey Crossing,Zhanjia,,,http://omniture.com,+86 (827) 511-1622
